[{"OBJECT_NAME":"STARLINK-6196","OBJECT_ID":"2023-064AR","EPOCH":"2026-03-09T11:19:27.284448","MEAN_MOTION":14.98333961,"ECCENTRICITY":0.00036414,"INCLINATION":70.0005,"RA_OF_ASC_NODE":104.8614,"ARG_OF_PERICENTER":271.9465,"MEAN_ANOMALY":88.1277,"EPHEMERIS_TYPE":0,"CLASSIFICATION_TYPE":"U","NORAD_CAT_ID":56487,"ELEMENT_SET_NO":999,"REV_AT_EPOCH":15620,"BSTAR":0.00024760709,"MEAN_MOTION_DOT":2.863e-5,"MEAN_MOTION_DDOT":0},{"OBJECT_NAME":"FENGYUN 1C DEB","OBJECT_ID":"1999-025CUF","EPOCH":"2026-03-09T01:34:38.628768","MEAN_MOTION":15.17132493,"ECCENTRICITY":0.01273829,"INCLINATION":98.8955,"RA_OF_ASC_NODE":293.2327,"ARG_OF_PERICENTER":89.1897,"MEAN_ANOMALY":272.3925,"EPHEMERIS_TYPE":0,"CLASSIFICATION_TYPE":"U","NORAD_CAT_ID":32185,"ELEMENT_SET_NO":999,"REV_AT_EPOCH":96318,"BSTAR":0.0036969643,"MEAN_MOTION_DOT":0.00091378,"MEAN_MOTION_DDOT":0}]
